GAOFEN 1                
1 39150U 13018A   23270.50596525  .00001491  00000+0  22103-3 0  9997
2 39150  98.0213 340.2234 0019703 218.5336 141.4468 14.76469092561658
VNREDSAT 1              
1 39160U 13021B   23270.36659414  .00000482  00000+0  10320-3 0  9990
2 39160  98.0315 339.6925 0001510  86.9211 273.2163 14.62877835554883
ARIRANG-5 (KOMPSAT-5)   
1 39227U 13042A   23270.39787445  .00004293  00000+0  31099-3 0  9996
2 39227  97.6202  94.9926 0000290  29.2889 330.8353 15.04496643554493
SKYSAT-A                
1 39418U 13066C   23269.73377943  .00006286  00000+0  47201-3 0  9994
2 39418  97.5252 332.8373 0026910 123.9616 236.4172 15.02666243538604
DUBAISAT-2              
1 39419U 13066D   23270.34628483  .00004122  00000+0  35612-3 0  9992
2 39419  97.4133 283.4123 0013797 139.5436 220.6816 14.97664605537004
GPM-CORE                
1 39574U 14009C   23270.50291266  .00036045  00000+0  49598-3 0  9992
2 39574  64.9925  37.8656 0012896 265.7631  94.2042 15.56993182544290
SENTINEL-1A             
1 39634U 14016A   23270.35634413  .00000434  00000+0  10187-3 0  9990
2 39634  98.1828 276.2543 0001348  89.1439 270.9915 14.59200982505117
KAZEOSAT 1              
1 39731U 14024A   23270.40211819  .00000477  00000+0  15864-3 0  9998
2 39731  98.4222 345.8139 0001372 101.7954 258.3389 14.42028714495385
ALOS-2                  
1 39766U 14029A   23270.34207026  .00003977  00000+0  53922-3 0  9994
2 39766  97.9227   5.7715 0001574 100.9026 259.2362 14.79466600504662
KAZEOSAT 2              
1 40010U 14033A   23270.37142376  .00001181  00000+0  15480-3 0  9994
2 40010  97.6556 142.3771 0012178 358.5787   1.5390 14.82074388501607
HODOYOSHI-4             
1 40011U 14033B   23270.39398468  .00002378  00000+0  29714-3 0  9996
2 40011  97.6119 127.8600 0025713 351.0588   9.0165 14.83012473501250
DEIMOS-2                
1 40013U 14033D   23270.37707776  .00003935  00000+0  44371-3 0  9998
2 40013  97.7085 159.8017 0002382  62.4813 297.6645 14.87132686502536
HODOYOSHI-3             
1 40015U 14033F   23270.04077091  .00001790  00000+0  24065-3 0  9999
2 40015  97.6031 104.7918 0036684  21.7778 338.4984 14.79971928500312
SPOT 7                  
1 40053U 14034A   23270.38361514  .00001019  00000+0  22763-3 0  9992
2 40053  98.1944 336.2391 0001627  92.0750 268.0636 14.58826035492148
SKYSAT-B                
1 40072U 14037D   23269.70566899  .00002292  00000+0  28990-3 0  9995
2 40072  98.3455 164.8773 0004760 254.5947 105.4740 14.82896608498316
WORLDVIEW-3 (WV-3)      
1 40115U 14048A   23269.89255126  .00002512  00000+0  30237-3 0  9995
2 40115  97.8374 342.2380 0001756  36.5208 323.6127 14.84772809494344
GAOFEN 2                
1 40118U 14049A   23270.39525877  .00002221  00000+0  29502-3 0  9999
2 40118  97.7035 327.1251 0004476 215.0119 145.0800 14.80733443492198
YAOGAN 21               
1 40143U 14053A   23270.42011566  .00013105  00000+0  54502-3 0  9992
2 40143  97.2941 331.5458 0010593  22.1654 338.0040 15.23852859503658
YAOGAN 22               
1 40275U 14063A   23269.87018248 -.00000022  00000+0  63945-4 0  9997
2 40275 100.6277  35.5125 0005809 271.0891  88.9555 13.15465009429070
ASNARO                  
1 40298U 14070A   23270.42148327  .00018122  00000+0  85457-3 0  9995
2 40298  97.4352 351.4155 0006789 116.4132 243.7800 15.19514497493115
HODOYOSHI-1             
1 40299U 14070B   23270.39551361  .00018678  00000+0  52919-3 0  9991
2 40299  97.1839 330.5134 0008219 270.6181  89.4122 15.36276025494489
QSAT-EOS                
1 40301U 14070D   23270.38632945  .00130135  00000+0  85239-3 0  9996
2 40301  97.1413 341.1793 0008733 189.0142 171.0968 15.75351865495847
YAOGAN 23               
1 40305U 14071A   23270.37956338  .00025342  00000+0  78800-3 0  9994
2 40305  97.6635 237.0480 0002249  86.0744 274.0754 15.33313922491779
YAOGAN 24               
1 40310U 14072A   23270.38786836  .00002022  00000+0  29904-3 0  9997
2 40310  98.0264  31.2341 0013580 210.6864 149.3553 14.76256832477111
CBERS 4                 
1 40336U 14079A   23270.43115672  .00000290  00000+0  11600-3 0  9991
2 40336  98.4345 340.1863 0001811  77.0401 283.0987 14.35468813461401
RESURS P2               
1 40360U 14087A   23270.39836170  .00018991  00000+0  38443-3 0  9996
2 40360  97.1762 352.7349 0007370 184.6296 175.4887 15.46444647490146
YAOGAN 26               
1 40362U 14088A   23270.35288100  .00016098  00000+0  66835-3 0  9991
2 40362  97.0861 301.1787 0007578 293.2480  66.7960 15.23883921487128
SMAP                    
1 40376U 15003A   23270.36948507  .00001115  00000+0  22486-3 0  9997
2 40376  98.1308 275.4977 0001366 112.9804 247.1542 14.63356516462279
KOMPSAT-3A              
1 40536U 15014A   23270.36234961  .00009928  00000+0  51391-3 0  9996
2 40536  97.5788 214.0340 0005457 112.0983 248.0830 15.16413555469654
SENTINEL-2A             
1 40697U 15028A   23270.39635150  .00000298  00000+0  13041-3 0  9998
2 40697  98.5698 343.4439 0001295  96.4612 263.6718 14.30817339431626
GAOFEN 8                
1 40701U 15030A   23270.36620401  .00018855  00000+0  79231-3 0  9998
2 40701  97.6232  55.3027 0006074 182.9223 177.1979 15.23463899459479
CARBONITE 1 (CBNT-1)    
1 40718U 15032D   23270.39302114  .00003032  00000+0  43650-3 0  9996
2 40718  97.6804 118.2783 0014913 305.6981  54.2841 14.76981932442303
YAOGAN 27               
1 40878U 15040A   23270.33587180 -.00000013  00000+0  77507-4 0  9990
2 40878 100.0929 286.4462 0008248 352.8784   7.2211 13.15999289388447
GAOFEN 9-01             
1 40894U 15047A   23270.40387020  .00002116  00000+0  29552-3 0  9995
2 40894  97.7671 329.6504 0032406 142.2512 218.0982 14.78305479433104
LAPAN-A2                
1 40931U 15052B   23270.16819884  .00001587  00000+0  12922-3 0  9998
2 40931   6.0000  78.4673 0013549 298.5925  61.2840 14.77374343432454
YAOGAN 28               
1 41026U 15064A   23270.37022934  .00014313  00000+0  59780-3 0  9996
2 41026  97.6162  63.0717 0005661  31.8185 328.3393 15.23734122439326
YAOGAN 29               
1 41038U 15069A   23270.36765175  .00000949  00000+0  12839-3 0  9998
2 41038  98.0650 278.2000 0002306  50.0521 310.0893 14.81351120423402
KENT RIDGE 1            
1 41167U 15077B   23270.00418040  .00005759  00000+0  28148-3 0  9991
2 41167  14.9815  42.7120 0010482 358.6074   1.4217 15.12650153429923
TELEOS 1                
1 41169U 15077D   23270.38777457  .00018094  00000+0  75390-3 0  9991
2 41169  14.9816 342.3633 0008285 109.1403 250.9816 15.21084618430506
GAOFEN 4                
1 41194U 15083A   23270.36230021 -.00000349  00000+0  00000+0 0  9992
2 41194   0.0263  97.9905 0000554 132.4667  11.5471  1.00273296 28520
JASON-3                 
1 41240U 16002A   23269.82375789 -.00000039  00000+0  93778-4 0  9991
2 41240  66.0433  40.4157 0007566 266.6616  93.3534 12.80931355359644
SENTINEL-3A             
1 41335U 16011A   23270.40593677  .00000280  00000+0  13368-3 0  9993
2 41335  98.6283 335.9740 0001260 106.6552 253.4767 14.26743538396352
ZIYUAN 3-2 (ZY 3-2)     
1 41556U 16033A   23270.39385378  .00012004  00000+0  53473-3 0  9995
2 41556  97.4867 342.8755 0006900  50.9280 309.2569 15.21570904406892
NUSAT-1 (FRESCO)        
1 41557U 16033B   23270.31453565  .00353932  00000+0  14333-2 0  9991
2 41557  97.3864  23.7685 0002086 215.4027 144.7105 15.85399189409642
NUSAT-2 (BATATA)        
1 41558U 16033C   23270.39359687  .00962938  50662-3  13203-2 0  9990
2 41558  97.4180  33.5591 0006784 269.7473  90.3031 16.06267420410075
CARTOSAT-2C             
1 41599U 16040A   23270.37193690  .00009342  00000+0  44498-3 0  9990
2 41599  97.4264 328.9978 0013113 356.7068   3.4078 15.19274772402825
SKYSAT-C1               
1 41601U 16040C   23269.75188847  .00026151  00000+0  64979-3 0  9995
2 41601  97.1029 337.3437 0001994 130.5455 229.5965 15.40292226405705
LAPAN-A3                
1 41603U 16040E   23270.37476591  .00003814  00000+0  16457-3 0  9992
2 41603  97.1621 291.2291 0011244 322.6075  37.4379 15.23047016403048
BIROS                   
1 41604U 16040F   23270.37593588  .00013003  00000+0  43542-3 0  9995
2 41604  97.1560 302.3634 0008090 274.6447  85.3871 15.31037402403721
GAOFEN 3                
1 41727U 16049A   23270.38181999  .00000196  00000+0  72556-4 0  9997
2 41727  98.4093 276.9265 0001223  64.1362 295.9954 14.42229169375393
SKYSAT-C4               
1 41771U 16058B   23270.09221441  .00018528  00000+0  50073-3 0  9998
2 41771  97.0557 325.1003 0004852 146.3469 213.8086 15.37766635392721
SKYSAT-C5               
1 41772U 16058C   23270.37044456  .00017188  00000+0  51039-3 0  9993
2 41772  97.2032 326.6583 0001646  53.1339 307.0055 15.34847691391168
SKYSAT-C2               
1 41773U 16058D   23270.18081665  .00004377  00000+0  13358-3 0  9994
2 41773  97.0562 325.4159 0003113 304.3014  55.7935 15.34410380392743
SKYSAT-C3               
1 41774U 16058E   23270.12250277  .00027038  00000+0  59070-3 0  9996
2 41774  97.0566 328.7710 0009375  91.9361 268.2962 15.44110047392960
ALSAT 1B                
1 41785U 16059C   23270.36120781  .00000781  00000+0  13630-3 0  9999
2 41785  97.8525 303.9179 0009881 167.1587 192.9873 14.70545789374425
PATHFINDER 1            
1 41787U 16059E   23270.32398456  .00001250  00000+0  24135-3 0  9997
2 41787  97.8599 299.5486 0031099 126.6843 233.7226 14.64788415374064
SCATSAT 1               
1 41790U 16059H   23270.37326285  .00000539  00000+0  14639-3 0  9994
2 41790  98.2609 312.6064 0004393 188.6453 171.4668 14.51298420370787
GOKTURK 1A              
1 41875U 16073A   23270.33747415  .00000974  00000+0  20005-3 0  9999
2 41875  98.1224 163.3378 0001333  83.5994 276.5360 14.62801295363539
RESOURCESAT-2A          
1 41877U 16074A   23270.43310834  .00000310  00000+0  16126-3 0  9997
2 41877  98.6752 343.8523 0001998  82.0599 278.0805 14.21637547353117
CARTOSAT-2D             
1 41948U 17008A   23270.07419908  .00009406  00000+0  44789-3 0  9997
2 41948  97.4669 328.1296 0006400 132.4624 227.7152 15.19339784366643
